OBJECT_NAME,OBJECT_ID,EPOCH,MEAN_MOTION,ECCENTRICITY,INCLINATION,RA_OF_ASC_NODE,ARG_OF_PERICENTER,MEAN_ANOMALY,EPHEMERIS_TYPE,CLASSIFICATION_TYPE,NORAD_CAT_ID,ELEMENT_SET_NO,REV_AT_EPOCH,BSTAR,MEAN_MOTION_DOT,MEAN_MOTION_DDOT
SWARM B,2013-067A,2026-07-04T09:59:51.280800,15.28663011,.00027335,87.7456,337.0816,79.5863,280.5694,0,U,39451,999,68587,.16562821E-3,.4647E-4,0
SWARM A,2013-067B,2026-07-04T13:47:03.115968,15.51298579,.00032054,87.3303,49.7783,96.5471,263.6155,0,U,39452,999,70894,.28499538E-3,.16762E-3,0
SWARM C,2013-067C,2026-07-04T13:46:54.602112,15.51297655,.00031921,87.3303,48.3591,96.6258,263.5367,0,U,39453,999,70890,.28432544E-3,.16722E-3,0
BRITE-CA1 (TORONTO),2014-033L,2026-07-04T15:14:52.964736,14.72709042,.00777067,97.9761,314.2438,220.2855,139.2579,0,U,40020,999,64478,.22477598E-3,.145E-4,0
OCO 2,2014-035A,2026-07-04T14:20:21.540192,14.57126886,.00014791,98.2019,126.6256,81.6135,278.5231,0,U,40059,999,63858,.14981143E-3,.63E-5,0
BRITE-PL2 (HEWELIUSZ),2014-049B,2026-07-04T01:02:11.887296,14.94655576,.00150118,97.9112,297.1746,57.2784,302.9880,0,U,40119,999,64396,.20566641E-3,.2174E-4,0
MMS 1,2015-011A,2026-07-04T16:00:03.000096,0.28300651,.83259665,72.5666,348.5322,167.7478,281.7361,0,U,40482,999,139,0,-.803E-5,0
MMS 2,2015-011B,2026-07-04T16:00:03.000096,0.28308003,.8328551,72.5692,348.5307,167.7550,281.7035,0,U,40483,999,139,0,-.803E-5,0
MMS 3,2015-011C,2026-07-04T16:00:03.000096,0.28308065,.83269235,72.5689,348.5426,167.7625,281.6778,0,U,40484,999,139,0,-.802E-5,0
MMS 4,2015-011D,2026-07-04T16:00:03.000096,0.28300684,.83270691,72.5664,348.5265,167.7682,281.6933,0,U,40485,999,139,0,-.803E-5,0
ASTROSAT,2015-052A,2026-07-04T01:03:40.576896,14.82537819,.00085759,5.9980,34.0032,275.4229,84.4920,0,U,40930,999,58233,.14146054E-3,.1836E-4,0
DAMPE,2015-078A,2026-07-04T14:54:50.008896,15.30829749,.00127518,97.4556,191.1744,22.1200,338.0589,0,U,41173,999,58721,.34053438E-4,.938E-5,0
PISAT,2016-059B,2026-07-04T10:41:07.732896,14.69015535,.0029785,97.8184,185.1567,147.8327,212.4704,0,U,41784,999,52227,.21170187E-3,.1202E-4,0
HXMT (HUIYAN),2017-034A,2026-07-04T15:08:18.185856,15.18616878,.00328048,43.0141,85.9020,256.4564,103.2629,0,U,42758,999,50031,.33174068E-3,.6852E-4,0
FLYING LAPTOP,2017-042G,2026-07-04T15:34:50.421216,15.01257840,.00199282,97.4771,340.5188,66.0616,294.2694,0,U,42831,999,48907,.22589085E-3,.2857E-4,0
ZHANGHENG 1-01 (CSES-1),2018-015C,2026-07-04T15:20:57.145920,15.21051657,.00178823,97.6889,351.6471,202.2152,157.8310,0,U,43194,999,46729,.52666653E-3,.11681E-3,0
SALSAT,2020-068K,2026-07-04T11:27:58.980672,15.30057656,.00082082,97.8855,189.5980,234.4468,125.6006,0,U,46495,999,31800,.47010278E-3,.13616E-3,0
IXPE,2021-121A,2026-07-04T14:00:01.999872,15.10408892,.00068473,0.2294,185.7556,339.4272,144.1197,0,U,49954,999,563,.98464364E-3,.17641E-3,0
SMILE,2026-109A,2026-06-07T09:11:54.544416,7.54049028,.3310191,69.9787,209.3069,288.5544,45.7342,0,U,69123,999,248,-.36778157E-3,-.41E-6,0
