SWARM B                 
1 39451U 13067A   26185.41656575  .00004647  00000+0  16563-3 0  9994
2 39451  87.7456 337.0816 0002733  79.5863 280.5694 15.28663011685873
SWARM A                 
1 39452U 13067B   26185.57434162  .00016762  00000+0  28500-3 0  9993
2 39452  87.3303  49.7783 0003205  96.5471 263.6155 15.51298579708947
SWARM C                 
1 39453U 13067C   26185.57424308  .00016722  00000+0  28433-3 0  9996
2 39453  87.3303  48.3591 0003192  96.6258 263.5367 15.51297655708903
BRITE-CA1 (TORONTO)     
1 40020U 14033L   26185.63533524  .00001450  00000+0  22478-3 0  9995
2 40020  97.9761 314.2438 0077706 220.2855 139.2579 14.72709042644784
OCO 2                   
1 40059U 14035A   26185.59747153  .00000630  00000+0  14981-3 0  9998
2 40059  98.2019 126.6256 0001479  81.6135 278.5231 14.57126886638588
BRITE-PL2 (HEWELIUSZ)   
1 40119U 14049B   26185.04319314  .00002174  00000+0  20567-3 0  9996
2 40119  97.9112 297.1746 0015011  57.2784 302.9880 14.94655576643963
MMS 1                   
1 40482U 15011A   26185.66670139 -.00000803  00000+0  00000+0 0  9996
2 40482  72.5666 348.5322 8325966 167.7478 281.7361  0.28300651  1394
MMS 2                   
1 40483U 15011B   26185.66670139 -.00000803  00000+0  00000+0 0  9997
2 40483  72.5692 348.5307 8328551 167.7550 281.7035  0.28308003  1398
MMS 3                   
1 40484U 15011C   26185.66670139 -.00000802  00000+0  00000+0 0  9997
2 40484  72.5689 348.5426 8326923 167.7625 281.6778  0.28308065  1392
MMS 4                   
1 40485U 15011D   26185.66670139 -.00000803  00000+0  00000+0 0  9999
2 40485  72.5664 348.5265 8327069 167.7682 281.6933  0.28300684  1394
ASTROSAT                
1 40930U 15052A   26185.04421964  .00001836  00000+0  14146-3 0  9997
2 40930   5.9980  34.0032 0008575 275.4229  84.4920 14.82537819582333
DAMPE                   
1 41173U 15078A   26185.62141214  .00000938  00000+0  34053-4 0  9998
2 41173  97.4556 191.1744 0012751  22.1200 338.0589 15.30829749587211
PISAT                   
1 41784U 16059B   26185.44522839  .00001202  00000+0  21170-3 0  9992
2 41784  97.8184 185.1567 0029785 147.8327 212.4704 14.69015535522276
HXMT (HUIYAN)           
1 42758U 17034A   26185.63076604  .00006852  00000+0  33174-3 0  9996
2 42758  43.0141  85.9020 0032804 256.4564 103.2629 15.18616878500317
FLYING LAPTOP           
1 42831U 17042G   26185.64919469  .00002857  00000+0  22589-3 0  9992
2 42831  97.4771 340.5188 0019928  66.0616 294.2694 15.01257840489075
ZHANGHENG 1-01 (CSES-1) 
1 43194U 18015C   26185.63955030  .00011681  00000+0  52667-3 0  9994
2 43194  97.6889 351.6471 0017882 202.2152 157.8310 15.21051657467293
SALSAT                  
1 46495U 20068K   26185.47776598  .00013616  00000+0  47010-3 0  9990
2 46495  97.8855 189.5980 0008208 234.4468 125.6006 15.30057656318001
IXPE                    
1 49954U 21121A   26185.58335648  .00017641  00000+0  98464-3 0  9994
2 49954   0.2294 185.7556 0006847 339.4272 144.1197 15.10408892  5631
SMILE                   
1 69123U 26109A   26158.38327019 -.00000041  00000+0 -36778-3 0  9994
2 69123  69.9787 209.3069 3310191 288.5544  45.7342  7.54049028  2480
